STARLINK-32584          
1 62179C 24225S   26121.85604167 -.00036939  00000+0 -30949-2 0  1214
2 62179  70.0026  30.3202 0002746 267.5110 297.2664 14.98358687    19
STARLINK-32587          
1 62180C 24225T   26121.83451389 -.00026314  00000+0 -22048-2 0  1217
2 62180  70.0030  30.2755 0002723 266.9903 249.2285 14.98353330    12
STARLINK-32602          
1 62181C 24225U   26121.84562500 -.00038468  00000+0 -32235-2 0  1219
2 62181  70.0031  20.4404 0002899 268.7410 207.5931 14.98354554    17
STARLINK-32565          
1 62182C 24225V   26121.84562500 -.00030174  00000+0 -25284-2 0  1212
2 62182  70.0029  30.2389 0002515 265.4356  40.7006 14.98351679    19
STARLINK-32589          
1 62183C 24225W   26121.85881944 -.00038392  00000+0 -32179-2 0  1211
2 62183  70.0030  30.6031 0003063 266.1914 111.8566 14.98344863    15
STARLINK-32581          
1 62184C 24225X   26121.87131944 -.00047009  00000+0 -39392-2 0  1211
2 62184  70.0030  20.2746 0002678 268.1615  76.7656 14.98358487    11
STARLINK-32686          
1 62192C 24229A   26121.86854167 -.00115010  00000+0 -41681-2 0  1214
2 62192  43.0015 326.7711 0001436 264.9416 192.4576 15.27616299    11
STARLINK-32688          
1 62193C 24229B   26121.90048611 -.00089520  00000+0 -32444-2 0  1212
2 62193  43.0014 330.2767 0001400 268.6260 268.2680 15.27603274    18
STARLINK-32684          
1 62194C 24229C   26121.85673611 -.00107360  00000+0 -38896-2 0  1211
2 62194  43.0035 330.1835 0001733 268.2560 169.2588 15.27621860    13
STARLINK-32672          
1 62195C 24229D   26121.89215278 -.00059809  00000+0 -21680-2 0  1214
2 62195  43.0014 330.1720 0001425 272.2053 282.5203 15.27581893    18
STARLINK-32682          
1 62196C 24229E   26121.83590278 -.00051693  00000+0 -18738-2 0  1218
2 62196  43.0014 297.9023 0001387 280.6642  33.5124 15.27578457    17
STARLINK-32663          
1 62197C 24229F   26121.83173611 -.00116660  00000+0 -42263-2 0  1213
2 62197  43.0031 330.9458 0001196 276.8354 121.2734 15.27628629    11
STARLINK-32640          
1 62198C 24229G   26121.87826389 -.00174450  00000+0 -63198-2 0  1216
2 62198  43.0023 330.1481 0001554 269.4417 251.2554 15.27658026    15
STARLINK-32653          
1 62199C 24229H   26121.85604167 -.00137500  00000+0 -49823-2 0  1217
2 62199  43.0030 323.5856 0001304 269.0807  10.7788 15.27632910    19
STARLINK-32647          
1 62200C 24229J   26121.84006944 -.00119490  00000+0 -43298-2 0  1216
2 62200  43.0013 330.6477 0001137 268.0955 282.0323 15.27622637    12
STARLINK-32667          
1 62201C 24229K   26121.89215278 -.00046400  00000+0 -16808-2 0  1211
2 62201  43.0031 329.8845 0001429 274.0491  40.7890 15.27598033    18
STARLINK-32655          
1 62202C 24229L   26121.87062500 -.00111900  00000+0 -40553-2 0  1210
2 62202  43.0023 330.6236 0001407 273.0683  21.6179 15.27616460    15
STARLINK-32665          
1 62203C 24229M   26121.87409722 -.00142090  00000+0 -51472-2 0  1218
2 62203  43.0013 330.3725 0001589 271.6135 141.1864 15.27643283    14
STARLINK-32664          
1 62204C 24229N   26121.84909722  .00025973  00000+0  52333-3 0  1217
2 62204  42.9979 324.7844 0018848 277.1079 216.8112 15.45488118    17
STARLINK-32660          
1 62205C 24229P   26121.83659722 -.00110290  00000+0 -39972-2 0  1211
2 62205  43.0014 316.3792 0001362 276.2948  68.0125 15.27613943    14
STARLINK-32448          
1 62206C 24229Q   26121.90326389 -.00069272  00000+0 -25103-2 0  1214
2 62206  43.0029 329.8712 0001501 271.3769  83.5283 15.27596550    15
STARLINK-32430          
1 62207C 24229R   26121.89215278 -.00074034  00000+0 -26841-2 0  1219
2 62207  43.0028 326.9716 0001378 260.0160 185.9332 15.27583663    12
STARLINK-32675          
1 62208C 24229S   26121.88312500 -.00119510  00000+0 -43319-2 0  1213
2 62208  43.0016 330.2690 0001292 270.2195 213.5718 15.27613353    11
STARLINK-32671          
1 62209C 24229T   26121.83937500 -.00053494  00000+0 -19377-2 0  1217
2 62209  43.0033 330.9840 0001303 277.0544 127.7803 15.27603316    10
STARLINK-32670          
1 62210C 24229U   26121.90395833 -.00104840  00000+0 -38002-2 0  1212
2 62210  43.0017 330.0477 0001419 282.6369 358.2887 15.27606019    12
STARLINK-32642          
1 62211C 24229V   26121.86993056 -.00112590  00000+0 -40788-2 0  1214
2 62211  43.0028 330.1589 0001611 270.3992 218.5318 15.27628287    18
STARLINK-32668          
1 62212C 24229W   26121.82826389 -.00141110  00000+0 -51123-2 0  1210
2 62212  43.0030 327.3834 0001332 264.3749 168.5546 15.27641571    14
STARLINK-32669          
1 62213C 24229X   26121.89284722 -.00130290  00000+0 -47218-2 0  1214
2 62213  43.0027 330.5466 0001315 263.5689 132.2545 15.27625054    18
STARLINK-32666          
1 62214C 24229Y   26121.86020833 -.00103730  00000+0 -37589-2 0  1212
2 62214  43.0032 330.8147 0001224 261.4789 279.2415 15.27615402    15
STARLINK-32662          
1 62215C 24229Z   26121.87131944 -.00135990  00000+0 -49280-2 0  1214
2 62215  43.0018 330.5672 0001364 263.7559  55.9852 15.27630064    10
STARLINK-11394 [DTC]    
1 62218C 24231A   26121.85673611  .00009242  00000+0  76183-4 0  1212
2 62218  53.1573 199.1845 0001323  92.1910 202.9979 15.69686452    14
STARLINK-11490 [DTC]    
1 62219C 24231B   26121.86923611 -.00011494  00000+0 -94778-4 0  1216
2 62219  53.1574 199.1791 0001065  90.0719 248.0617 15.69690660    19
STARLINK-11466 [DTC]    
1 62220C 24231C   26121.86298611 -.00004264  00000+0 -35196-4 0  1219
2 62220  53.1569 199.3219 0001095  81.0184 166.4052 15.69663411    11
STARLINK-11468 [DTC]    
1 62221C 24231D   26121.90326389 -.00036037  00000+0 -29702-3 0  1217
2 62221  53.1570 199.2359 0001059 104.9616 314.6164 15.69714262    15
STARLINK-11488 [DTC]    
1 62222C 24231E   26121.85812500 -.00050214  00000+0 -41402-3 0  1211
2 62222  53.1574 199.2883 0000809  85.6103 161.9594 15.69712515    19
STARLINK-11483 [DTC]    
1 62223C 24231F   26121.84701389 -.00020613  00000+0 -16997-3 0  1214
2 62223  53.1569 198.9472 0000864  91.0377 287.8658 15.69695765    15
STARLINK-11492 [DTC]    
1 62224C 24231G   26121.83937500  .00025636  00000+0  21144-3 0  1218
2 62224  53.1568 199.5057 0001180  82.8862   3.1993 15.69665919    19
STARLINK-11471 [DTC]    
1 62225C 24231H   26121.90395833 -.00054335  00000+0 -44746-3 0  1217
2 62225  53.1566 198.7335 0001164 109.3192 203.8077 15.69742361    10
STARLINK-11475 [DTC]    
1 62226C 24231J   26121.87062500 -.00037663  00000+0 -31054-3 0  1219
2 62226  53.1563 198.9417 0001178 101.0003 355.9328 15.69705539    10
STARLINK-11469 [DTC]    
1 62227C 24231K   26121.89909722 -.00042533  00000+0 -35071-3 0  1213
2 62227  53.1570 198.9138 0001091 104.0091  98.4362 15.69706627    19
STARLINK-11476 [DTC]    
1 62228C 24231L   26121.89979167 -.00024062  00000+0 -19831-3 0  1217
2 62228  53.1571 198.6272 0001134 104.2796 240.7758 15.69708204    13
STARLINK-11485 [DTC]    
1 62229C 24231M   26121.85604167  .00022014  00000+0  18679-3 0  1211
2 62229  53.1574 199.0638 0001354  87.8676 261.1899 15.68981840    16
STARLINK-11481 [DTC]    
1 62230C 24231N   26121.88034722 -.00023831  00000+0 -19639-3 0  1217
2 62230  53.1570 199.4008 0001047 100.9487 161.3269 15.69711742    10
STARLINK-32650          
1 62231C 24231P   26121.89493056 -.00032537  00000+0 -10972-2 0  1211
2 62231  53.1604 332.6788 0001211  87.6613 206.0980 15.30191712    14
STARLINK-32636          
1 62232C 24231Q   26121.87826389 -.00063868  00000+0 -21535-2 0  1217
2 62232  53.1588 332.3232 0001293  84.7228 338.1993 15.30209454    11
STARLINK-32643          
1 62233C 24231R   26121.84076389 -.00118500  00000+0 -38148-2 0  1214
2 62233  53.1601 319.9241 0001211  85.7649  22.6636 15.31725756    15
STARLINK-32652          
1 62234C 24231S   26121.89562500 -.00022695  00000+0 -76525-3 0  1216
2 62234  53.1588 332.4902 0001287  84.4955 306.1564 15.30188354    19
STARLINK-32631          
1 62235C 24231T   26121.88520833 -.00097765  00000+0 -31464-2 0  1211
2 62235  53.1606 319.5160 0001286  85.4344  11.2437 15.31725138    16
STARLINK-32641          
1 62236C 24231U   26121.86437500 -.00038096  00000+0 -12844-2 0  1211
2 62236  53.1589 319.8801 0001108  87.9294 116.0865 15.30199797    10
STARLINK-32632          
1 62262C 24231V   26121.83451389 -.00032248  00000+0 -10872-2 0  1210
2 62262  53.1601 332.8754 0001219  94.5165 266.9565 15.30198720    17
STARLINK-11496 [DTC]    
1 62267C 24237A   26121.87409722  .00017423  00000+0  13567-3 0  1210
2 62267  42.9999  96.3720 0001594 242.0456  95.5419 15.70768102    17
STARLINK-11501 [DTC]    
1 62268C 24237B   26121.85534722 -.00014001  00000+0 -10904-3 0  1211
2 62268  43.0003  96.0359 0001747 262.5775 149.2075 15.70780573    13
STARLINK-11491 [DTC]    
1 62269C 24237C   26121.84701389 -.00031125  00000+0 -24240-3 0  1210
2 62269  43.0004  96.0109 0001551 267.2371 127.4352 15.70789890    12
STARLINK-11479 [DTC]    
1 62270C 24237D   26121.86645833 -.00031911  00000+0 -24857-3 0  1212
2 62270  43.0004  96.1176 0001658 263.9031 150.6791 15.70785421    14
STARLINK-11489 [DTC]    
1 62271C 24237E   26121.85673611 -.00001170  00000+0 -91106-5 0  1214
2 62271  43.0001  96.6987 0001512 275.9207 233.1916 15.70770115    14
STARLINK-11494 [DTC]    
1 62272C 24237F   26121.84770833 -.00024565  00000+0 -19127-3 0  1212
2 62272  43.0000  96.4538 0001579 256.5100 321.7283 15.70791389    11
STARLINK-11333 [DTC]    
1 62273C 24237G   26121.88104167  .00065644  00000+0  51123-3 0  1211
2 62273  43.0002  96.4021 0001341 270.1462  76.7046 15.70742376    17
STARLINK-11504 [DTC]    
1 62274C 24237H   26121.89909722  .00026277  00000+0  20461-3 0  1213
2 62274  43.0001  96.0687 0001610 268.9341 270.3206 15.70765335    11
STARLINK-11495 [DTC]    
1 62275C 24237J   26121.87756944  .00036153  00000+0  28155-3 0  1210
2 62275  43.0002  96.6462 0001462 266.0547 330.9514 15.70757619    13
